{"type": "FeatureCollection", "features": [ {"type": "Feature", "properties": {"norad_id": 34976, "name": "COSMOS 2251 DEB", "group": "cosmos-2251-debris", "lat": -69.26746226145785, "lon": -171.98596276111073, "alt_km": 659.4003576103514, "timestamp": "2025-12-06T05:40:09.641196+00:00", "meta": {"OBJECT_NAME": "COSMOS 2251 DEB", "OBJECT_ID": "1993-036AFF", "EPOCH": "2025-12-05T07:40:29.180352", "MEAN_MOTION": 14.76316827, "ECCENTRICITY": 0.00478601, "INCLINATION": 74.0574, "RA_OF_ASC_NODE": 320.7636, "ARG_OF_PERICENTER": 9.0692, "MEAN_ANOMALY": 59.3349, "EPHEMERIS_TYPE": 0, "CLASSIFICATION_TYPE": "U", "NORAD_CAT_ID": 34976, "ELEMENT_SET_NO": 999, "REV_AT_EPOCH": 88164, "BSTAR": 0.0025442973, "MEAN_MOTION_DOT": 0.00017999, "MEAN_MOTION_DDOT": 0}, "tle": {"line1": "1 34976U 93036AFF 25339.31978218  .00017999  00000+0  25443-2 0  9995", "line2": "2 34976  74.0574 320.7636 0047860   9.0692  59.3349 14.76316827881641"}}, "geometry": {"type": "Point", "coordinates": [-171.98596276111073, -69.26746226145785]}}, {"type": "Feature", "properties": {"norad_id": 34979, "name": "COSMOS 2251 DEB", "group": "cosmos-2251-debris", "lat": -56.05861426276594, "lon": 125.2199205078414, "alt_km": 655.7408004605222, "timestamp": "2025-12-06T05:40:09.641207+00:00", "meta": {"OBJECT_NAME": "COSMOS 2251 DEB", "OBJECT_ID": "1993-036AFJ", "EPOCH": "2025-12-05T05:51:42.859584", "MEAN_MOTION": 14.79110975, "ECCENTRICITY": 0.00492303, "INCLINATION": 74.0405, "RA_OF_ASC_NODE": 282.0061, "ARG_OF_PERICENTER": 1.6035, "MEAN_ANOMALY": 358.5289, "EPHEMERIS_TYPE": 0, "CLASSIFICATION_TYPE": "U", "NORAD_CAT_ID": 34979, "ELEMENT_SET_NO": 999, "REV_AT_EPOCH": 88109, "BSTAR": 0.0026882288, "MEAN_MOTION_DOT": 0.00020352, "MEAN_MOTION_DDOT": 0}, "tle": {"line1": "1 34979U 93036AFJ 25339.24424606  .00020352  00000+0  26882-2 0  9992", "line2": "2 34979  74.0405 282.0061 0049230   1.6035 358.5289 14.79110975881096"}}, "geometry": {"type": "Point", "coordinates": [125.2199205078414, -56.05861426276594]}}, {"type": "Feature", "properties": {"norad_id": 34990, "name": "COSMOS 2251 DEB", "group": "cosmos-2251-debris", "lat": 50.13608790438933, "lon": 63.3603731995601, "alt_km": 756.7362383906238, "timestamp": "2025-12-06T05:40:09.641217+00:00", "meta": {"OBJECT_NAME": "COSMOS 2251 DEB", "OBJECT_ID": "1993-036AFN", "EPOCH": "2025-11-30T02:35:36.793536", "MEAN_MOTION": 14.42317714, "ECCENTRICITY": 0.00161518, "INCLINATION": 74.0452, "RA_OF_ASC_NODE": 274.7497, "ARG_OF_PERICENTER": 338.715, "MEAN_ANOMALY": 21.3332, "EPHEMERIS_TYPE": 0, "CLASSIFICATION_TYPE": "U", "NORAD_CAT_ID": 34990, "ELEMENT_SET_NO": 999, "REV_AT_EPOCH": 87164, "BSTAR": 0.00051741405, "MEAN_MOTION_DOT": 1.685e-05, "MEAN_MOTION_DDOT": 0}, "tle": {"line1": "1 34990U 93036AFN 25334.10806474  .00001685  00000+0  51741-3 0  9993", "line2": "2 34990  74.0452 274.7497 0016151 338.7150  21.3332 14.42317714871644"}}, "geometry": {"type": "Point", "coordinates": [63.3603731995601, 50.13608790438933]}}, {"type": "Feature", "properties": {"norad_id": 34997, "name": "COSMOS 2251 DEB", "group": "cosmos-2251-debris", "lat": -35.82357200246781, "lon": 155.49615310802085, "alt_km": 736.1520454215488, "timestamp": "2025-12-06T05:40:09.641227+00:00", "meta": {"OBJECT_NAME": "COSMOS 2251 DEB", "OBJECT_ID": "1993-036AFV", "EPOCH": "2025-11-29T18:09:59.976288", "MEAN_MOTION": 14.45289096, "ECCENTRICITY": 0.00981723, "INCLINATION": 73.8805, "RA_OF_ASC_NODE": 335.6343, "ARG_OF_PERICENTER": 312.7593, "MEAN_ANOMALY": 46.5333, "EPHEMERIS_TYPE": 0, "CLASSIFICATION_TYPE": "U", "NORAD_CAT_ID": 34997, "ELEMENT_SET_NO": 999, "REV_AT_EPOCH": 70559, "BSTAR": 0.0014679127, "MEAN_MOTION_DOT": 5.442e-05, "MEAN_MOTION_DDOT": 0}, "tle": {"line1": "1 34997U 93036AFV 25333.75694417  .00005442  00000+0  14679-2 0  9995", "line2": "2 34997  73.8805 335.6343 0098172 312.7593  46.5333 14.45289096705597"}}, "geometry": {"type": "Point", "coordinates": [155.49615310802085, -35.82357200246781]}}, {"type": "Feature", "properties": {"norad_id": 34998, "name": "COSMOS 2251 DEB", "group": "cosmos-2251-debris", "lat": 9.998172468939043, "lon": 175.0984584484917, "alt_km": 720.2210859703491, "timestamp": "2025-12-06T05:40:09.641237+00:00", "meta": {"OBJECT_NAME": "COSMOS 2251 DEB", "OBJECT_ID": "1993-036AFW", "EPOCH": "2025-12-05T07:15:10.738368", "MEAN_MOTION": 14.49232301, "ECCENTRICITY": 0.00208266, "INCLINATION": 74.0093, "RA_OF_ASC_NODE": 173.9546, "ARG_OF_PERICENTER": 320.5716, "MEAN_ANOMALY": 218.7492, "EPHEMERIS_TYPE": 0, "CLASSIFICATION_TYPE": "U", "NORAD_CAT_ID": 34998, "ELEMENT_SET_NO": 999, "REV_AT_EPOCH": 87312, "BSTAR": 0.00097084532, "MEAN_MOTION_DOT": 3.684e-05, "MEAN_MOTION_DDOT": 0}, "tle": {"line1": "1 34998U 93036AFW 25339.30220762  .00003684  00000+0  97085-3 0  9990", "line2": "2 34998  74.0093 173.9546 0020826 320.5716 218.7492 14.49232301873128"}}, "geometry": {"type": "Point", "coordinates": [175.0984584484917, 9.998172468939043]}}, {"type": "Feature", "properties": {"norad_id": 35000, "name": "COSMOS 2251 DEB", "group": "cosmos-2251-debris", "lat": 52.71919813573241, "lon": -124.95381182857113, "alt_km": 344.4988611703384, "timestamp": "2025-12-06T05:40:09.641247+00:00", "meta": {"OBJECT_NAME": "COSMOS 2251 DEB", "OBJECT_ID": "1993-036AFY", "EPOCH": "2025-12-05T01:57:41.909184", "MEAN_MOTION": 15.71909029, "ECCENTRICITY": 0.00111913, "INCLINATION": 74.0016, "RA_OF_ASC_NODE": 215.5306, "ARG_OF_PERICENTER": 181.0558, "MEAN_ANOMALY": 179.0645, "EPHEMERIS_TYPE": 0, "CLASSIFICATION_TYPE": "U", "NORAD_CAT_ID": 35000, "ELEMENT_SET_NO": 999, "REV_AT_EPOCH": 88394, "BSTAR": 0.0088477225, "MEAN_MOTION_DOT": 0.01289352, "MEAN_MOTION_DDOT": 0}, "tle": {"line1": "1 35000U 93036AFY 25339.08173506  .01289352  00000+0  88477-2 0  9996", "line2": "2 35000  74.0016 215.5306 0011191 181.0558 179.0645 15.71909029883948"}}, "geometry": {"type": "Point", "coordinates": [-124.95381182857113, 52.71919813573241]}}, {"type": "Feature", "properties": {"norad_id": 35012, "name": "COSMOS 2251 DEB", "group": "cosmos-2251-debris", "lat": 65.2811761290608, "lon": 162.37937755055995, "alt_km": 789.8656374816683, "timestamp": "2025-12-06T05:40:09.641257+00:00", "meta": {"OBJECT_NAME": "COSMOS 2251 DEB", "OBJECT_ID": "1993-036AFZ", "EPOCH": "2025-11-29T10:33:51.837120", "MEAN_MOTION": 14.45521065, "ECCENTRICITY": 0.0081636, "INCLINATION": 74.0181, "RA_OF_ASC_NODE": 136.5568, "ARG_OF_PERICENTER": 279.5143, "MEAN_ANOMALY": 79.6796, "EPHEMERIS_TYPE": 0, "CLASSIFICATION_TYPE": "U", "NORAD_CAT_ID": 35012, "ELEMENT_SET_NO": 999, "REV_AT_EPOCH": 87369, "BSTAR": 0.00015191388, "MEAN_MOTION_DOT": 5.29e-06, "MEAN_MOTION_DDOT": 0}, "tle": {"line1": "1 35012U 93036AFZ 25333.44018330  .00000529  00000+0  15191-3 0  9996", "line2": "2 35012  74.0181 136.5568 0081636 279.5143  79.6796 14.45521065873693"}}, "geometry": {"type": "Point", "coordinates": [162.37937755055995, 65.2811761290608]}}, {"type": "Feature", "properties": {"norad_id": 35014, "name": "COSMOS 2251 DEB", "group": "cosmos-2251-debris", "lat": -25.36217460753072, "lon": -115.90332924990226, "alt_km": 645.4318619085288, "timestamp": "2025-12-06T05:40:09.641268+00:00", "meta": {"OBJECT_NAME": "COSMOS 2251 DEB", "OBJECT_ID": "1993-036AGB", "EPOCH": "2025-12-04T21:48:26.106336", "MEAN_MOTION": 14.74923301, "ECCENTRICITY": 0.000785, "INCLINATION": 74.0001, "RA_OF_ASC_NODE": 58.8781, "ARG_OF_PERICENTER": 233.0833, "MEAN_ANOMALY": 126.9621, "EPHEMERIS_TYPE": 0, "CLASSIFICATION_TYPE": "U", "NORAD_CAT_ID": 35014, "ELEMENT_SET_NO": 999, "REV_AT_EPOCH": 71221, "BSTAR": 0.0035808, "MEAN_MOTION_DOT": 0.00024115, "MEAN_MOTION_DDOT": 0}, "tle": {"line1": "1 35014U 93036AGB 25338.90863549  .00024115  00000+0  35808-2 0  9997", "line2": "2 35014  74.0001  58.8781 0007850 233.0833 126.9621 14.74923301712210"}}, "geometry": {"type": "Point", "coordinates": [-115.90332924990226, -25.36217460753072]}}, {"type": "Feature", "properties": {"norad_id": 35015, "name": "COSMOS 2251 DEB", "group": "cosmos-2251-debris", "lat": 3.076550280046116, "lon": 66.05669207364393, "alt_km": 710.8275774126841, "timestamp": "2025-12-06T05:40:09.641279+00:00", "meta": {"OBJECT_NAME": "COSMOS 2251 DEB", "OBJECT_ID": "1993-036AGC", "EPOCH": "2025-12-04T12:10:57.092736", "MEAN_MOTION": 14.4680235, "ECCENTRICITY": 0.0074187, "INCLINATION": 73.9485, "RA_OF_ASC_NODE": 250.189, "ARG_OF_PERICENTER": 121.2428, "MEAN_ANOMALY": 54.7861, "EPHEMERIS_TYPE": 0, "CLASSIFICATION_TYPE": "U", "NORAD_CAT_ID": 35015, "ELEMENT_SET_NO": 999, "REV_AT_EPOCH": 65321, "BSTAR": 0.0019089, "MEAN_MOTION_DOT": 7.135e-05, "MEAN_MOTION_DDOT": 0}, "tle": {"line1": "1 35015U 93036AGC 25338.50760524  .00007135  00000+0  19089-2 0  9999", "line2": "2 35015  73.9485 250.1890 0074187 121.2428  54.7861 14.46802350653215"}}, "geometry": {"type": "Point", "coordinates": [66.05669207364393, 3.076550280046116]}}, {"type": "Feature", "properties": {"norad_id": 35016, "name": "COSMOS 2251 DEB", "group": "cosmos-2251-debris", "lat": 62.49920798396018, "lon": 92.80385097437444, "alt_km": 798.6890657236863, "timestamp": "2025-12-06T05:40:09.641289+00:00", "meta": {"OBJECT_NAME": "COSMOS 2251 DEB", "OBJECT_ID": "1993-036AGD", "EPOCH": "2025-12-03T09:15:41.281344", "MEAN_MOTION": 14.3502721, "ECCENTRICITY": 0.011501, "INCLINATION": 73.9297, "RA_OF_ASC_NODE": 311.6842, "ARG_OF_PERICENTER": 230.5843, "MEAN_ANOMALY": 283.9594, "EPHEMERIS_TYPE": 0, "CLASSIFICATION_TYPE": "U", "NORAD_CAT_ID": 35016, "ELEMENT_SET_NO": 999, "REV_AT_EPOCH": 86648, "BSTAR": 0.00056136775, "MEAN_MOTION_DOT": 1.695e-05, "MEAN_MOTION_DDOT": 0}, "tle": {"line1": "1 35016U 93036AGD 25337.38589446  .00001695  00000+0  56137-3 0  9998", "line2": "2 35016  73.9297 311.6842 0115010 230.5843 283.9594 14.35027210866489"}}, "geometry": {"type": "Point", "coordinates": [92.80385097437444, 62.49920798396018]}}]}